QIANFAN-57              
1 62787U 25016C   25286.61075470  .00000074  00000+0  96242-4 0  9994
2 62787  88.9746 109.4079 0001468  60.8317 299.2981 13.50975017 39086
QIANFAN-58              
1 62788U 25016D   25286.58190894  .00000066  00000+0  84028-4 0  9999
2 62788  88.9717 109.2610 0014583 150.8793 209.3175 13.50974579 39128
QIANFAN-59              
1 62789U 25016E   25286.60657882  .00000067  00000+0  85542-4 0  9991
2 62789  88.9740 109.3179 0014868 154.5674 205.6212 13.50973877 39122
QIANFAN-60              
1 62790U 25016F   25273.45632892  .00000063  00000+0  77135-4 0  9991
2 62790  88.9732 110.6637 0014892 189.3455 170.7422 13.52524324 37336
QIANFAN-61              
1 62791U 25016G   25286.59832737  .00000069  00000+0  88354-4 0  9992
2 62791  88.9789 109.4237 0015444 150.8278 209.3739 13.50974278 39125
QIANFAN-62              
1 62792U 25016H   25286.60256234  .00000067  00000+0  84787-4 0  9991
2 62792  88.9736 109.3242 0016810 151.6751 208.5318 13.50968191 39116
QIANFAN-63              
1 62793U 25016J   25286.62715428  .00000066  00000+0  83306-4 0  9994
2 62793  88.9744 109.2691 0016729 156.7512 203.4400 13.50971194 39150
QIANFAN-64              
1 62794U 25016K   25286.59423128  .00000063  00000+0  77965-4 0  9995
2 62794  88.9729 109.2547 0014854 149.3161 210.8862 13.50972812 39140
