<?xml version="1.0" encoding="UTF-8"?>
<ndm xmlns:xsi="http://www.w3.org/2001/XMLSchema-instance" xsi:noNamespaceSchemaLocation="https://sanaregistry.org/r/ndmxml_unqualified/ndmxml-2.0.0-master-2.0.xsd">
<omm id="CCSDS_OMM_VERS" version="2.0">
<header><CREATION_DATE/><ORIGINATOR/></header><body><segment><metadata><OBJECT_NAME>QIANFAN-57</OBJECT_NAME><OBJECT_ID>2025-016C</OBJECT_ID><CENTER_NAME>EARTH</CENTER_NAME><REF_FRAME>TEME</REF_FRAME><TIME_SYSTEM>UTC</TIME_SYSTEM><MEAN_ELEMENT_THEORY>SGP4</MEAN_ELEMENT_THEORY></metadata><data><meanElements><EPOCH>2025-10-13T14:39:29.206080</EPOCH><MEAN_MOTION>13.50975017</MEAN_MOTION><ECCENTRICITY>.00014688</ECCENTRICITY><INCLINATION>88.9746</INCLINATION><RA_OF_ASC_NODE>109.4079</RA_OF_ASC_NODE><ARG_OF_PERICENTER>60.8317</ARG_OF_PERICENTER><MEAN_ANOMALY>299.2981</MEAN_ANOMALY></meanElements><tleParameters><EPHEMERIS_TYPE>0</EPHEMERIS_TYPE><CLASSIFICATION_TYPE>U</CLASSIFICATION_TYPE><NORAD_CAT_ID>62787</NORAD_CAT_ID><ELEMENT_SET_NO>999</ELEMENT_SET_NO><REV_AT_EPOCH>3908</REV_AT_EPOCH><BSTAR>.96241576E-4</BSTAR><MEAN_MOTION_DOT>.74E-6</MEAN_MOTION_DOT><MEAN_MOTION_DDOT>0</MEAN_MOTION_DDOT></tleParameters></data></segment></body></omm>
<omm id="CCSDS_OMM_VERS" version="2.0">
<header><CREATION_DATE/><ORIGINATOR/></header><body><segment><metadata><OBJECT_NAME>QIANFAN-58</OBJECT_NAME><OBJECT_ID>2025-016D</OBJECT_ID><CENTER_NAME>EARTH</CENTER_NAME><REF_FRAME>TEME</REF_FRAME><TIME_SYSTEM>UTC</TIME_SYSTEM><MEAN_ELEMENT_THEORY>SGP4</MEAN_ELEMENT_THEORY></metadata><data><meanElements><EPOCH>2025-10-13T13:57:56.932416</EPOCH><MEAN_MOTION>13.50974579</MEAN_MOTION><ECCENTRICITY>.00145834</ECCENTRICITY><INCLINATION>88.9717</INCLINATION><RA_OF_ASC_NODE>109.2610</RA_OF_ASC_NODE><ARG_OF_PERICENTER>150.8793</ARG_OF_PERICENTER><MEAN_ANOMALY>209.3175</MEAN_ANOMALY></meanElements><tleParameters><EPHEMERIS_TYPE>0</EPHEMERIS_TYPE><CLASSIFICATION_TYPE>U</CLASSIFICATION_TYPE><NORAD_CAT_ID>62788</NORAD_CAT_ID><ELEMENT_SET_NO>999</ELEMENT_SET_NO><REV_AT_EPOCH>3912</REV_AT_EPOCH><BSTAR>.84027755E-4</BSTAR><MEAN_MOTION_DOT>.66E-6</MEAN_MOTION_DOT><MEAN_MOTION_DDOT>0</MEAN_MOTION_DDOT></tleParameters></data></segment></body></omm>
<omm id="CCSDS_OMM_VERS" version="2.0">
<header><CREATION_DATE/><ORIGINATOR/></header><body><segment><metadata><OBJECT_NAME>QIANFAN-59</OBJECT_NAME><OBJECT_ID>2025-016E</OBJECT_ID><CENTER_NAME>EARTH</CENTER_NAME><REF_FRAME>TEME</REF_FRAME><TIME_SYSTEM>UTC</TIME_SYSTEM><MEAN_ELEMENT_THEORY>SGP4</MEAN_ELEMENT_THEORY></metadata><data><meanElements><EPOCH>2025-10-13T14:33:28.410048</EPOCH><MEAN_MOTION>13.50973877</MEAN_MOTION><ECCENTRICITY>.00148688</ECCENTRICITY><INCLINATION>88.9740</INCLINATION><RA_OF_ASC_NODE>109.3179</RA_OF_ASC_NODE><ARG_OF_PERICENTER>154.5674</ARG_OF_PERICENTER><MEAN_ANOMALY>205.6212</MEAN_ANOMALY></meanElements><tleParameters><EPHEMERIS_TYPE>0</EPHEMERIS_TYPE><CLASSIFICATION_TYPE>U</CLASSIFICATION_TYPE><NORAD_CAT_ID>62789</NORAD_CAT_ID><ELEMENT_SET_NO>999</ELEMENT_SET_NO><REV_AT_EPOCH>3912</REV_AT_EPOCH><BSTAR>.85542354E-4</BSTAR><MEAN_MOTION_DOT>.67E-6</MEAN_MOTION_DOT><MEAN_MOTION_DDOT>0</MEAN_MOTION_DDOT></tleParameters></data></segment></body></omm>
<omm id="CCSDS_OMM_VERS" version="2.0">
<header><CREATION_DATE/><ORIGINATOR/></header><body><segment><metadata><OBJECT_NAME>QIANFAN-60</OBJECT_NAME><OBJECT_ID>2025-016F</OBJECT_ID><CENTER_NAME>EARTH</CENTER_NAME><REF_FRAME>TEME</REF_FRAME><TIME_SYSTEM>UTC</TIME_SYSTEM><MEAN_ELEMENT_THEORY>SGP4</MEAN_ELEMENT_THEORY></metadata><data><meanElements><EPOCH>2025-09-30T10:57:06.818688</EPOCH><MEAN_MOTION>13.52524324</MEAN_MOTION><ECCENTRICITY>.00148923</ECCENTRICITY><INCLINATION>88.9732</INCLINATION><RA_OF_ASC_NODE>110.6637</RA_OF_ASC_NODE><ARG_OF_PERICENTER>189.3455</ARG_OF_PERICENTER><MEAN_ANOMALY>170.7422</MEAN_ANOMALY></meanElements><tleParameters><EPHEMERIS_TYPE>0</EPHEMERIS_TYPE><CLASSIFICATION_TYPE>U</CLASSIFICATION_TYPE><NORAD_CAT_ID>62790</NORAD_CAT_ID><ELEMENT_SET_NO>999</ELEMENT_SET_NO><REV_AT_EPOCH>3733</REV_AT_EPOCH><BSTAR>.77135464E-4</BSTAR><MEAN_MOTION_DOT>.63E-6</MEAN_MOTION_DOT><MEAN_MOTION_DDOT>0</MEAN_MOTION_DDOT></tleParameters></data></segment></body></omm>
<omm id="CCSDS_OMM_VERS" version="2.0">
<header><CREATION_DATE/><ORIGINATOR/></header><body><segment><metadata><OBJECT_NAME>QIANFAN-61</OBJECT_NAME><OBJECT_ID>2025-016G</OBJECT_ID><CENTER_NAME>EARTH</CENTER_NAME><REF_FRAME>TEME</REF_FRAME><TIME_SYSTEM>UTC</TIME_SYSTEM><MEAN_ELEMENT_THEORY>SGP4</MEAN_ELEMENT_THEORY></metadata><data><meanElements><EPOCH>2025-10-13T14:21:35.484768</EPOCH><MEAN_MOTION>13.50974278</MEAN_MOTION><ECCENTRICITY>.0015444</ECCENTRICITY><INCLINATION>88.9789</INCLINATION><RA_OF_ASC_NODE>109.4237</RA_OF_ASC_NODE><ARG_OF_PERICENTER>150.8278</ARG_OF_PERICENTER><MEAN_ANOMALY>209.3739</MEAN_ANOMALY></meanElements><tleParameters><EPHEMERIS_TYPE>0</EPHEMERIS_TYPE><CLASSIFICATION_TYPE>U</CLASSIFICATION_TYPE><NORAD_CAT_ID>62791</NORAD_CAT_ID><ELEMENT_SET_NO>999</ELEMENT_SET_NO><REV_AT_EPOCH>3912</REV_AT_EPOCH><BSTAR>.88353672E-4</BSTAR><MEAN_MOTION_DOT>.69E-6</MEAN_MOTION_DOT><MEAN_MOTION_DDOT>0</MEAN_MOTION_DDOT></tleParameters></data></segment></body></omm>
<omm id="CCSDS_OMM_VERS" version="2.0">
<header><CREATION_DATE/><ORIGINATOR/></header><body><segment><metadata><OBJECT_NAME>QIANFAN-62</OBJECT_NAME><OBJECT_ID>2025-016H</OBJECT_ID><CENTER_NAME>EARTH</CENTER_NAME><REF_FRAME>TEME</REF_FRAME><TIME_SYSTEM>UTC</TIME_SYSTEM><MEAN_ELEMENT_THEORY>SGP4</MEAN_ELEMENT_THEORY></metadata><data><meanElements><EPOCH>2025-10-13T14:27:41.386176</EPOCH><MEAN_MOTION>13.50968191</MEAN_MOTION><ECCENTRICITY>.00168109</ECCENTRICITY><INCLINATION>88.9736</INCLINATION><RA_OF_ASC_NODE>109.3242</RA_OF_ASC_NODE><ARG_OF_PERICENTER>151.6751</ARG_OF_PERICENTER><MEAN_ANOMALY>208.5318</MEAN_ANOMALY></meanElements><tleParameters><EPHEMERIS_TYPE>0</EPHEMERIS_TYPE><CLASSIFICATION_TYPE>U</CLASSIFICATION_TYPE><NORAD_CAT_ID>62792</NORAD_CAT_ID><ELEMENT_SET_NO>999</ELEMENT_SET_NO><REV_AT_EPOCH>3911</REV_AT_EPOCH><BSTAR>.84787404E-4</BSTAR><MEAN_MOTION_DOT>.67E-6</MEAN_MOTION_DOT><MEAN_MOTION_DDOT>0</MEAN_MOTION_DDOT></tleParameters></data></segment></body></omm>
<omm id="CCSDS_OMM_VERS" version="2.0">
<header><CREATION_DATE/><ORIGINATOR/></header><body><segment><metadata><OBJECT_NAME>QIANFAN-63</OBJECT_NAME><OBJECT_ID>2025-016J</OBJECT_ID><CENTER_NAME>EARTH</CENTER_NAME><REF_FRAME>TEME</REF_FRAME><TIME_SYSTEM>UTC</TIME_SYSTEM><MEAN_ELEMENT_THEORY>SGP4</MEAN_ELEMENT_THEORY></metadata><data><meanElements><EPOCH>2025-10-13T15:03:06.129792</EPOCH><MEAN_MOTION>13.50971194</MEAN_MOTION><ECCENTRICITY>.00167294</ECCENTRICITY><INCLINATION>88.9744</INCLINATION><RA_OF_ASC_NODE>109.2691</RA_OF_ASC_NODE><ARG_OF_PERICENTER>156.7512</ARG_OF_PERICENTER><MEAN_ANOMALY>203.4400</MEAN_ANOMALY></meanElements><tleParameters><EPHEMERIS_TYPE>0</EPHEMERIS_TYPE><CLASSIFICATION_TYPE>U</CLASSIFICATION_TYPE><NORAD_CAT_ID>62793</NORAD_CAT_ID><ELEMENT_SET_NO>999</ELEMENT_SET_NO><REV_AT_EPOCH>3915</REV_AT_EPOCH><BSTAR>.83305581E-4</BSTAR><MEAN_MOTION_DOT>.66E-6</MEAN_MOTION_DOT><MEAN_MOTION_DDOT>0</MEAN_MOTION_DDOT></tleParameters></data></segment></body></omm>
<omm id="CCSDS_OMM_VERS" version="2.0">
<header><CREATION_DATE/><ORIGINATOR/></header><body><segment><metadata><OBJECT_NAME>QIANFAN-64</OBJECT_NAME><OBJECT_ID>2025-016K</OBJECT_ID><CENTER_NAME>EARTH</CENTER_NAME><REF_FRAME>TEME</REF_FRAME><TIME_SYSTEM>UTC</TIME_SYSTEM><MEAN_ELEMENT_THEORY>SGP4</MEAN_ELEMENT_THEORY></metadata><data><meanElements><EPOCH>2025-10-13T14:15:41.582592</EPOCH><MEAN_MOTION>13.50972812</MEAN_MOTION><ECCENTRICITY>.00148542</ECCENTRICITY><INCLINATION>88.9729</INCLINATION><RA_OF_ASC_NODE>109.2547</RA_OF_ASC_NODE><ARG_OF_PERICENTER>149.3161</ARG_OF_PERICENTER><MEAN_ANOMALY>210.8862</MEAN_ANOMALY></meanElements><tleParameters><EPHEMERIS_TYPE>0</EPHEMERIS_TYPE><CLASSIFICATION_TYPE>U</CLASSIFICATION_TYPE><NORAD_CAT_ID>62794</NORAD_CAT_ID><ELEMENT_SET_NO>999</ELEMENT_SET_NO><REV_AT_EPOCH>3914</REV_AT_EPOCH><BSTAR>.77964566E-4</BSTAR><MEAN_MOTION_DOT>.63E-6</MEAN_MOTION_DOT><MEAN_MOTION_DDOT>0</MEAN_MOTION_DDOT></tleParameters></data></segment></body></omm>

</ndm>
